BEIDOU-3 M19 (C41)      
1 44864U 19090A   26116.52856293 -.00000040  00000+0  00000+0 0  9994
2 44864  56.5164  64.4967 0019771 296.1367 163.2976  1.86231351 43270
BEIDOU-3 M20 (C42)      
1 44865U 19090B   26116.40926545 -.00000038  00000+0  00000+0 0  9997
2 44865  56.5180  64.5353 0017474 308.3640 160.6881  1.86231167 43256
BEIDOU-3 G2 (C60)       
1 45344U 20017A   26116.95983383 -.00000149  00000+0  00000+0 0  9997
2 45344   2.7633  46.5357 0002544 348.1977 245.8021  1.00271430 22742
COSMOS 2545 (760)       
1 45358U 20018A   26116.13664067 -.00000027  00000+0  00000+0 0  9993
2 45358  64.3864 314.2486 0007174 238.9664 120.9888  2.13102374 47553
BEIDOU-3 G3 (C61)       
1 45807U 20040A   26116.94372098 -.00000363  00000+0  00000+0 0  9999
2 45807   2.3235  67.2985 0003756 329.8075 268.1123  1.00270304 21556
GPS BIII-3  (PRN 23)    
1 45854U 20041A   26116.10218119 -.00000101  00000+0  00000+0 0  9993
2 45854  56.6381  30.9643 0062191 205.0511 313.8606  2.00559717 42992
GALAXY 30 (WAAS/PRN 135)
1 46114U 20056C   26116.68317993  .00000000  00000+0  00000+0 0  9999
2 46114   0.0129 235.3307 0002479 173.0121 287.2804  1.00271187 20774
COSMOS 2547 (705K)      
1 46805U 20075A   26116.32568127 -.00000012  00000+0  00000+0 0  9999
2 46805  64.5968 194.2055 0008364 236.7383 123.2291  2.13100274 42806
GPS BIII-4  (PRN 14)    
1 46826U 20078A   26112.92753654 -.00000017  00000+0  00000+0 0  9993
2 46826  53.9891 213.0193 0070939 205.6597 155.6852  2.00564823 40404
GPS BIII-5  (PRN 11)    
1 48859U 21054A   26116.36989758 -.00000083  00000+0  00000+0 0  9997
2 48859  55.1971 334.5423 0024042 229.9230 282.5639  2.00572310 35718
QZS-1R (QZSS/PRN 196)   
1 49336U 21096A   26116.78683814 -.00000235  00000+0  00000+0 0  9993
2 49336  37.3595  80.3391 0751378 270.8456 282.5590  1.00273034 16497
GSAT0223 (GALILEO 27)   
1 49809U 21116A   26114.32314513 -.00000088  00000+0  00000+0 0  9992
2 49809  57.1776 343.1299 0000234 233.2925 308.9540  1.70475480 27263
GSAT0224 (GALILEO 28)   
1 49810U 21116B   26114.72218082 -.00000089  00000+0  00000+0 0  9993
2 49810  57.1774 343.1180 0000625  14.3979 165.3634  1.70475626 27297
COSMOS 2557 (706K)      
1 52984U 22075A   26116.95964539 -.00000033  00000+0  00000+0 0  9995
2 52984  64.3278 316.2900 0010215 281.4007  78.5125  2.13101824 29621
COSMOS 2559 (707K)      
1 54031U 22130A   26115.84062453 -.00000029  00000+0  00000+0 0  9998
2 54031  64.3018 316.4145 0011364 176.1051 183.9320  2.13101453 27574
COSMOS 2564 (761)       
1 54377U 22161A   26116.15328306 -.00000014  00000+0  00000+0 0  9996
2 54377  64.7390 194.4383 0011022 219.5915 140.3749  2.13101951 26523
GPS BIII-6  (PRN 28)    
1 55268U 23009A   26116.15940615  .00000060  00000+0  00000+0 0  9991
2 55268  55.1147 150.5635 0005615 315.2799  82.8080  2.00574943 24207
